{
    "links": {
        "self": "http://www.neowsapp.com/rest/v1/neo/3114051?api_key=iIulBulltgU6a56xZRHN4H3l9WmuAYTsLGpBGhQ2"
    },
    "id": "3114051",
    "neo_reference_id": "3114051",
    "name": "(2002 CU46)",
    "designation": "2002 CU46",
    "nasa_jpl_url": "http://ssd.jpl.nasa.gov/sbdb.cgi?sstr=3114051",
    "absolute_magnitude_h": 21.1,
    "estimated_diameter": {
        "kilometers": {
            "estimated_diameter_min": 0.160160338,
            "estimated_diameter_max": 0.358129403
        },
        "meters": {
            "estimated_diameter_min": 160.1603379786,
            "estimated_diameter_max": 358.1294030194
        },
        "miles": {
            "estimated_diameter_min": 0.0995189894,
            "estimated_diameter_max": 0.2225312253
        },
        "feet": {
            "estimated_diameter_min": 525.4604432536,
            "estimated_diameter_max": 1174.9652706022
        }
    },
    "is_potentially_hazardous_asteroid": false,
    "close_approach_data": [
        {
            "close_approach_date": "2002-02-25",
            "close_approach_date_full": "2002-Feb-25 04:09",
            "epoch_date_close_approach": 1014610140000,
            "relative_velocity": {
                "kilometers_per_second": "21.7874198696",
                "kilometers_per_hour": "78434.7115306352",
                "miles_per_hour": "48736.279506355"
            },
            "miss_distance": {
                "astronomical": "0.1540820347",
                "lunar": "59.9379114983",
                "kilometers": "23050344.196386089",
                "miles": "14322819.7256584682"
            },
            "orbiting_body": "Earth"
        }
    ],
    "orbital_data": {
        "orbit_id": "16",
        "orbit_determination_date": "2017-04-06 09:15:26",
        "first_observation_date": "2002-02-11",
        "last_observation_date": "2002-03-03",
        "data_arc_in_days": 20,
        "observations_used": 56,
        "orbit_uncertainty": "9",
        "minimum_orbit_intersection": ".0936086",
        "jupiter_tisserand_invariant": "3.804",
        "epoch_osculation": "2452321.5",
        "eccentricity": ".5648993225644346",
        "semi_major_axis": "1.736145800599901",
        "inclination": "32.17260138602659",
        "ascending_node_longitude": "145.2368546185856",
        "orbital_period": "835.5601480164792",
        "perihelion_distance": ".7553982139679291",
        "perihelion_argument": "92.74164682194828",
        "aphelion_distance": "2.716893387231874",
        "perihelion_time": "2452388.420430889130",
        "mean_anomaly": "331.1674196318759",
        "mean_motion": ".4308486957576871",
        "equinox": "J2000",
        "orbit_class": {
            "orbit_class_type": "APO",
            "orbit_class_description": "Near-Earth asteroid orbits which cross the Earth’s orbit similar to that of 1862 Apollo",
            "orbit_class_range": "a (semi-major axis) > 1.0 AU; q (perihelion) < 1.017 AU"
        }
    },
    "is_sentry_object": false
}